OBJECT_NAME,OBJECT_ID,EPOCH,MEAN_MOTION,ECCENTRICITY,INCLINATION,RA_OF_ASC_NODE,ARG_OF_PERICENTER,MEAN_ANOMALY,EPHEMERIS_TYPE,CLASSIFICATION_TYPE,NORAD_CAT_ID,ELEMENT_SET_NO,REV_AT_EPOCH,BSTAR,MEAN_MOTION_DOT,MEAN_MOTION_DDOT
DUBAISAT-1,2009-041B,2026-06-15T22:27:43.921728,14.75120896,.00116818,98.0050,300.2074,77.3144,282.9370,0,U,35682,999,90491,.96253761E-4,.599E-5,0
OCEANSAT-2,2009-051A,2026-06-15T21:54:26.073792,13.99664614,.00151091,98.2324,153.8913,239.8308,120.1362,0,U,35931,999,87915,-.50896139E-4,-.112E-5,0
WORLDVIEW-2 (WV-2),2009-055A,2026-06-15T21:52:11.917056,14.37899130,.00036365,98.4737,240.3784,212.3724,147.7241,0,U,35946,999,87546,.51682413E-4,.112E-5,0
SMOS,2009-059A,2026-06-15T22:31:35.695776,14.39772025,.00013242,98.4424,354.2918,89.0271,271.1069,0,U,36036,999,87327,.7842148E-4,.202E-5,0
YAOGAN-7,2009-069A,2026-06-15T22:30:34.331040,14.78008724,.00256347,98.0074,52.8126,45.5692,314.7610,0,U,36110,999,88944,.64151135E-4,.412E-5,0
TANDEM-X,2010-030A,2026-06-15T13:04:49.708992,15.19149123,.0001884,97.4452,174.2763,86.9240,273.2210,0,U,36605,999,88639,.21672042E-4,.388E-5,0
CARTOSAT-2B,2010-035A,2026-06-15T23:40:15.331584,14.78661319,.00110867,97.9956,217.5436,187.6162,172.4882,0,U,36795,999,85967,.12064979E-3,.832E-5,0
YAOGAN-10,2010-038A,2026-06-16T00:04:25.926240,14.85343907,.00016699,97.8973,190.4163,86.3062,330.6619,0,U,36834,999,85703,.87506778E-4,.699E-5,0
COSMO-SKYMED 4,2010-060A,2026-06-15T23:00:16.170336,14.82154992,.0001438,97.8879,350.5763,81.3276,278.8100,0,U,37216,999,84438,.10658364E-3,.796E-5,0
RESOURCESAT-2,2011-015A,2026-06-15T21:25:12.337824,14.21606123,.00101784,98.7644,234.3433,259.6464,100.3566,0,U,37387,999,78599,.4521117E-4,.55E-6,0
HAIYANG-2A,2011-043A,2026-06-15T22:42:49.963968,13.74403889,.00060519,99.3387,169.6494,94.2594,265.9246,0,U,37781,999,74648,-.16788717E-3,-.202E-5,0
RASAT,2011-044D,2026-06-15T23:03:55.753344,14.68164217,.00200602,98.0580,258.3764,192.7650,283.4512,0,U,37791,999,79300,.35555941E-4,.156E-5,0
SRMSAT,2011-058D,2026-06-15T02:14:35.216160,14.11575160,.00118389,19.9720,72.1399,180.5594,207.7984,0,U,37841,999,75752,.49298812E-4,.356E-5,0
PLEIADES 1A,2011-076F,2026-06-15T23:13:40.395360,14.58569940,.00016228,98.1983,242.0868,96.4494,9.4089,0,U,38012,999,77181,.49496286E-4,.184E-5,0
ZIYUAN 1-02C (ZY 1-02C),2011-079A,2026-06-15T23:36:47.043648,14.38213375,.00055665,98.4079,234.3172,321.0831,211.7325,0,U,38038,999,75903,.9118027E-4,.234E-5,0
ARIRANG-3 (KOMPSAT-3),2012-025B,2026-06-16T00:09:00.102816,14.62205278,.00066367,98.1170,124.4865,112.3303,247.8603,0,U,38338,999,75117,.80877268E-4,.361E-5,0
EXACTVIEW-1 (ADS-1B),2012-039C,2026-06-15T21:45:39.664512,14.24984223,.00110905,98.9776,284.2680,169.9645,190.1757,0,U,38709,999,72252,.59029722E-4,.92E-6,0
SPOT 6,2012-047A,2026-06-15T23:06:43.759872,14.58561765,.00015167,98.2126,234.2861,92.9429,267.1944,0,U,38755,999,73287,.3291479E-4,.107E-5,0
PLEIADES 1B,2012-068A,2026-06-15T21:55:10.938720,14.58559300,.00016559,98.1954,241.9822,92.0891,268.0498,0,U,39019,999,72066,.29768673E-4,.93E-6,0
GOKTURK 2,2012-073A,2026-06-15T23:53:55.753152,14.75544360,.00016448,97.6814,4.4874,56.9793,303.1575,0,U,39030,999,72433,.15616757E-3,.1017E-4,0
LANDSAT 8,2013-008A,2026-06-15T22:13:27.158592,14.57093726,.00013586,98.2302,237.0762,93.7179,266.4175,0,U,39084,999,69771,.69830299E-4,.269E-5,0
SARAL,2013-009A,2026-06-15T22:10:00.891552,14.32855665,.00007721,98.5556,353.5069,318.2438,41.8687,0,U,39086,999,69542,.42389393E-4,.72E-6,0
GAOFEN-1,2013-018A,2026-06-15T23:29:22.380000,14.76536367,.00156913,97.9102,239.0710,270.7268,89.2144,0,U,39150,999,70806,.10685833E-3,.695E-5,0
VNREDSAT 1,2013-021B,2026-06-15T23:54:23.248224,14.64855659,.0001723,97.9084,220.4581,89.6847,270.4554,0,U,39160,999,70011,.89058912E-4,.43E-5,0
ARIRANG-5 (KOMPSAT-5),2013-042A,2026-06-15T23:15:15.963264,15.04488605,.00052686,97.6202,353.6870,122.3884,237.7852,0,U,39227,999,70367,.93455567E-4,.1247E-4,0
SKYSAT-A,2013-066C,2026-06-15T20:50:34.644192,15.12970148,.00201845,97.3813,216.3078,322.3608,37.6210,0,U,39418,999,68828,.14883794E-3,.2573E-4,0
DUBAISAT-2,2013-066D,2026-06-15T22:39:55.224288,15.10174813,.0012495,97.4558,157.1204,44.7582,315.4653,0,U,39419,999,68620,.21003064E-3,.3372E-4,0
GPM-CORE,2014-009C,2026-06-15T20:23:35.299968,15.44546213,.00119201,64.9725,312.6056,251.0366,108.9483,0,U,39574,999,69760,.21023989E-3,.9596E-4,0
SENTINEL-1A,2014-016A,2026-06-15T23:54:20.244096,14.59198901,.000142,98.1772,174.5459,82.5723,277.5638,0,U,39634,999,64984,.310449E-5,-.31E-6,0
KAZEOSAT 1,2014-024A,2026-06-15T21:52:37.073280,14.42079152,.00013788,98.3212,239.3903,73.0522,287.0819,0,U,39731,999,63837,.34321525E-4,.7E-6,0
