DUBAISAT-1              
1 35682U 09041B   26166.93592502  .00000599  00000+0  96254-4 0  9996
2 35682  98.0050 300.2074 0011681  77.3144 282.9370 14.75120896904914
OCEANSAT-2              
1 35931U 09051A   26166.91280178 -.00000112  00000+0 -50896-4 0  9990
2 35931  98.2324 153.8913 0015109 239.8308 120.1362 13.99664614879154
WORLDVIEW-2 (WV-2)      
1 35946U 09055A   26166.91124904  .00000112  00000+0  51682-4 0  9996
2 35946  98.4737 240.3784 0003636 212.3724 147.7241 14.37899130875465
SMOS                    
1 36036U 09059A   26166.93860759  .00000202  00000+0  78421-4 0  9998
2 36036  98.4424 354.2918 0001324  89.0271 271.1069 14.39772025873273
YAOGAN-7                
1 36110U 09069A   26166.93789735  .00000412  00000+0  64151-4 0  9994
2 36110  98.0074  52.8126 0025634  45.5692 314.7610 14.78008724889442
TANDEM-X                
1 36605U 10030A   26166.54501978  .00000388  00000+0  21672-4 0  9994
2 36605  97.4452 174.2763 0001884  86.9240 273.2210 15.19149123886390
CARTOSAT-2B             
1 36795U 10035A   26166.98628856  .00000832  00000+0  12065-3 0  9991
2 36795  97.9956 217.5436 0011086 187.6162 172.4882 14.78661319859675
YAOGAN-10               
1 36834U 10038A   26167.00307785  .00000699  00000+0  87507-4 0  9992
2 36834  97.8973 190.4163 0001669  86.3062 330.6619 14.85343907857035
COSMO-SKYMED 4          
1 37216U 10060A   26166.95852049  .00000796  00000+0  10658-3 0  9993
2 37216  97.8879 350.5763 0001438  81.3276 278.8100 14.82154992844389
RESOURCESAT-2           
1 37387U 11015A   26166.89250391  .00000055  00000+0  45211-4 0  9990
2 37387  98.7644 234.3433 0010178 259.6464 100.3566 14.21606123785998
HAIYANG-2A              
1 37781U 11043A   26166.94641162 -.00000202  00000+0 -16789-3 0  9998
2 37781  99.3387 169.6494 0006051  94.2594 265.9246 13.74403889746481
RASAT                   
1 37791U 11044D   26166.96106196  .00000156  00000+0  35556-4 0  9995
2 37791  98.0580 258.3764 0020060 192.7650 283.4512 14.68164217793006
SRMSAT                  
1 37841U 11058D   26166.09346315  .00000356  00000+0  49299-4 0  9990
2 37841  19.9720  72.1399 0011838 180.5594 207.7984 14.11575160757521
PLEIADES 1A             
1 38012U 11076F   26166.96782865  .00000184  00000+0  49496-4 0  9999
2 38012  98.1983 242.0868 0001622  96.4494   9.4089 14.58569940771816
ZIYUAN 1-02C (ZY 1-02C) 
1 38038U 11079A   26166.98387782  .00000234  00000+0  91180-4 0  9994
2 38038  98.4079 234.3172 0005566 321.0831 211.7325 14.38213375759035
ARIRANG-3 (KOMPSAT-3)   
1 38338U 12025B   26167.00625119  .00000361  00000+0  80877-4 0  9994
2 38338  98.1170 124.4865 0006636 112.3303 247.8603 14.62205278751175
EXACTVIEW-1 (ADS-1B)    
1 38709U 12039C   26166.90670908  .00000092  00000+0  59030-4 0  9993
2 38709  98.9776 284.2680 0011090 169.9645 190.1757 14.24984223722523
SPOT 6                  
1 38755U 12047A   26166.96300648  .00000107  00000+0  32915-4 0  9990
2 38755  98.2126 234.2861 0001516  92.9429 267.1944 14.58561765732870
PLEIADES 1B             
1 39019U 12068A   26166.91332105  .00000093  00000+0  29769-4 0  9992
2 39019  98.1954 241.9822 0001655  92.0891 268.0498 14.58559300720662
GOKTURK 2               
1 39030U 12073A   26166.99578418  .00001017  00000+0  15617-3 0  9991
2 39030  97.6814   4.4874 0001644  56.9793 303.1575 14.75544360724335
LANDSAT 8               
1 39084U 13008A   26166.92600878  .00000269  00000+0  69830-4 0  9993
2 39084  98.2302 237.0762 0001358  93.7179 266.4175 14.57093726697715
SARAL                   
1 39086U 13009A   26166.92362143  .00000072  00000+0  42389-4 0  9998
2 39086  98.5556 353.5069 0000772 318.2438  41.8687 14.32855665695427
GAOFEN-1                
1 39150U 13018A   26166.97873125  .00000695  00000+0  10686-3 0  9997
2 39150  97.9102 239.0710 0015691 270.7268  89.2144 14.76536367708061
VNREDSAT 1              
1 39160U 13021B   26166.99610241  .00000430  00000+0  89059-4 0  9990
2 39160  97.9084 220.4581 0001723  89.6847 270.4554 14.64855659700114
ARIRANG-5 (KOMPSAT-5)   
1 39227U 13042A   26166.96893476  .00001247  00000+0  93456-4 0  9990
2 39227  97.6202 353.6870 0005268 122.3884 237.7852 15.04488605703670
SKYSAT-A                
1 39418U 13066C   26166.86845653  .00002573  00000+0  14884-3 0  9991
2 39418  97.3813 216.3078 0020184 322.3608  37.6210 15.12970148688283
DUBAISAT-2              
1 39419U 13066D   26166.94438917  .00003372  00000+0  21003-3 0  9991
2 39419  97.4558 157.1204 0012495  44.7582 315.4653 15.10174813686207
GPM-CORE                
1 39574U 14009C   26166.84971412  .00009596  00000+0  21024-3 0  9999
2 39574  64.9725 312.6056 0011920 251.0366 108.9483 15.44546213697608
SENTINEL-1A             
1 39634U 14016A   26166.99606764 -.00000031  00000+0  31045-5 0  9997
2 39634  98.1772 174.5459 0001420  82.5723 277.5638 14.59198901649846
KAZEOSAT 1              
1 39731U 14024A   26166.91154020  .00000070  00000+0  34322-4 0  9991
2 39731  98.3212 239.3903 0001378  73.0522 287.0819 14.42079152638374
